GSAT0101 (GALILEO-PFM)  
1 37846U 11060A   26135.58630403 -.00000063  00000+0  00000+0 0  9990
2 37846  57.0052 342.6453 0003746  38.7070 321.3595  1.70475590 90567
GSAT0102 (GALILEO-FM2)  
1 37847U 11060B   26136.38933501 -.00000066  00000+0  00000+0 0  9998
2 37847  57.0053 342.6241 0004066   9.1833 169.3141  1.70475840 90586
GSAT0103 (GALILEO-FM3)  
1 38857U 12055A   26136.79987477  .00000030  00000+0  00000+0 0  9991
2 38857  55.7880 102.4060 0005645 299.2123  60.6822  1.70473321 84472
GSAT0201 (GALILEO 5)    
1 40128U 14050A   26134.99980419 -.00000050  00000+0  00000+0 0  9994
2 40128  48.9120 274.7959 1669526 178.0972 182.6426  1.85519851 77706
GSAT0202 (GALILEO 6)    
1 40129U 14050B   26136.33342958 -.00000046  00000+0  00000+0 0  9990
2 40129  48.9282 273.8262 1670853 178.8771 181.5697  1.85520497 79891
GSAT0203 (GALILEO 7)    
1 40544U 15017A   26134.19105623 -.00000060  00000+0  00000+0 0  9999
2 40544  56.7976 342.5224 0002529 298.3932  61.6234  1.70475894 68624
GSAT0204 (GALILEO 8)    
1 40545U 15017B   26135.03334835 -.00000062  00000+0  00000+0 0  9995
2 40545  56.8037 342.5179 0001895 276.1273  83.8917  1.70475634 31682
GSAT0205 (GALILEO 9)    
1 40889U 15045A   26115.63255192 -.00000038  00000+0  00000+0 0  9992
2 40889  54.9613 223.1764 0005159 266.9978  92.9342  1.67410754 66085
GSAT0206 (GALILEO 10)   
1 40890U 15045B   26133.84883054  .00000012  00000+0  00000+0 0  9992
2 40890  54.9550 222.5527 0001645  21.0324 339.0175  1.70473937 66454
GSAT0209 (GALILEO 12)   
1 41174U 15079A   26134.01678126  .00000051  00000+0  00000+0 0  9990
2 41174  55.8082 102.1982 0005676 332.8024  27.1359  1.70473925 64191
GSAT0208 (GALILEO 11)   
1 41175U 15079B   26135.41021713  .00000040  00000+0  00000+0 0  9998
2 41175  55.8070 102.1571 0005053 334.0906  25.8425  1.70473799 64632
GSAT0211 (GALILEO 14)   
1 41549U 16030A   26134.36115200  .00000014  00000+0  00000+0 0  9990
2 41549  55.1049 222.6253 0002568 339.5667  20.4689  1.70474048 62092
GSAT0210 (GALILEO 13)   
1 41550U 16030B   26136.37819808  .00000022  00000+0  00000+0 0  9999
2 41550  55.1026 222.5678 0003120 229.9283 130.1038  1.70474053 62127
GSAT0207 (GALILEO 15)   
1 41859U 16069A   26136.06976024  .00000034  00000+0  00000+0 0  9996
2 41859  55.4795 101.9741 0005805 321.7352  38.1779  1.70473747 58859
GSAT0212 (GALILEO 16)   
1 41860U 16069B   26134.16349088  .00000049  00000+0  00000+0 0  9997
2 41860  55.4761 102.0219 0004753 345.7526  14.2010  1.70473991 59075
GSAT0213 (GALILEO 17)   
1 41861U 16069C   26133.35764116  .00000054  00000+0  00000+0 0  9997
2 41861  55.4778 102.0522 0005700 305.7481  54.1710  1.70474359 58922
GSAT0214 (GALILEO 18)   
1 41862U 16069D   26136.43667882  .00000031  00000+0  00000+0 0  9997
2 41862  55.4784 101.9597 0004726 312.6450  47.2675  1.70473957 59107
GSAT0215 (GALILEO 19)   
1 43055U 17079A   26136.34019632  .00000022  00000+0  00000+0 0  9999
2 43055  55.0824 222.3832 0002494 261.6938  98.3376  1.70474546 52448
GSAT0216 (GALILEO 20)   
1 43056U 17079B   26136.04478433  .00000021  00000+0  00000+0 0  9994
2 43056  55.0833 222.3915 0002027 282.3954  77.6397  1.70474841 52453
GSAT0217 (GALILEO 21)   
1 43057U 17079C   26135.09239620  .00000018  00000+0  00000+0 0  9998
2 43057  55.0805 222.4152 0003437 290.5640  69.4503  1.70474741 52420
GSAT0218 (GALILEO 22)   
1 43058U 17079D   26135.31246427  .00000019  00000+0  00000+0 0  9998
2 43058  55.0810 222.4069 0005067 272.5633  87.4315  1.70474663 52454
GSAT0221 (GALILEO 25)   
1 43564U 18060A   26136.38948633 -.00000066  00000+0  00000+0 0  9990
2 43564  57.1790 342.6391 0003248 316.5560  43.4554  1.70475702 48622
GSAT0222 (GALILEO 26)   
1 43565U 18060B   26135.43592650 -.00000063  00000+0  00000+0 0  9997
2 43565  57.1831 342.6685 0001982 278.7517  81.2660  1.70475405 48650
GSAT0219 (GALILEO 23)   
1 43566U 18060C   26135.65686174 -.00000063  00000+0  00000+0 0  9997
2 43566  57.1821 342.6639 0002865 333.6172  26.4077  1.70475681 48635
GSAT0220 (GALILEO 24)   
1 43567U 18060D   26135.87782568 -.00000064  00000+0  00000+0 0  9997
2 43567  57.1819 342.6583 0003031 324.4992  35.5194  1.70475400 48624
GSAT0223 (GALILEO 27)   
1 49809U 21116A   26136.61477287 -.00000067  00000+0  00000+0 0  9993
2 49809  57.1688 342.5278 0000657 206.9869 336.1336  1.70475564 27649
GSAT0224 (GALILEO 28)   
1 49810U 21116B   26134.08629532 -.00000059  00000+0  00000+0 0  9997
2 49810  57.1734 342.5955 0000346 113.4739  70.4838  1.70475706 27629
GSAT0225 (GALILEO 29)   
1 59598U 24079A   26136.43692470  .00000030  00000+0  00000+0 0  9992
2 59598  55.1002 101.9665 0002331 285.0902 254.7037  1.70474063 12771
GSAT0227 (GALILEO 30)   
1 59600U 24079C   26135.74073062  .00000036  00000+0  00000+0 0  9995
2 59600  55.0953 101.9845 0001565  25.7086 334.2557  1.70474151 12813
GSAT0232 (GALILEO 32)   
1 61182U 24167A   26133.63130446  .00000012  00000+0  00000+0 0  9991
2 61182  55.1949 222.2621 0005340 217.4341 143.4556  1.70474390 10299
GSAT0226 (GALILEO 31)   
1 61183U 24167B   26135.82743698  .00000023  00000+0  10000-3 0  9991
2 61183  55.1929 222.2092 0002353 208.9783 151.0705  1.70475447 10303
